<?xml version="1.0" encoding="UTF-8"?>
<osm version="0.6" generator="CGImap 0.0.2">
 <bounds minlat="54.0889580" minlon="12.2487570" maxlat="54.0913900" maxlon="12.2524800"/>
 <node id="261728686" lat="54.0906309" lon="12.2441924" user="PikoWinter" uid="36744" visible="true" version="1" changeset="323878" timestamp="2008-05-03T13:39:23Z"/>
 <node id="1831881213" version="1" changeset="12370172" lat="54.0900666" lon="12.2539381" user="lafkor" uid="75625" visible="true" timestamp="2012-07-20T09:43:19Z">
  <tag k="name" v="Neu Broderstorf"/>
  <tag k="traffic_sign" v="city_limit"/>
 </node>
 <node id="25731497" lat="50.1467401" lon="9.0115264">
    <tag k="name" v="Rodenbach"/>
    <tag k="note" v="&quot;Rodenbach (Hanau)&quot; bzw. &quot;Rodenbach bei Hanau&quot; ist die offizielle Betriebsstellenbezeichnung"/>
    <tag k="official_name" v="Rodenbach (b Hanau)"/>
    <tag k="operator" v="DB Station&amp;Service AG"/>
    <tag k="railway" v="station"/>
    <tag k="railway:ref" v="FROD"/>
    <tag k="ref" v="3"/>
    <tag k="wheelchair" v="yes"/>
  </node>
   <node id="29930352" lat="50.6719875" lon="8.7110226">
    <tag k="level" v="1"/>
    <tag k="name" v="Friedelhausen"/>
    <tag k="network" v="RMV"/>
    <tag k="operator" v="DB Station&amp;Service AG"/>
    <tag k="public_transport" v="stop_position"/>
    <tag k="railway" v="halt"/>
    <tag k="railway:ref" v="FFN"/>
    <tag k="ref" v="2"/>
    <tag k="train" v="yes"/>
    <tag k="uic_ref" v="8002100"/>
    <tag k="wheelchair" v="no"/>
  </node>
  <node id="29930554" lat="50.3678511" lon="8.7490565">
    <tag k="local_ref" v="1"/>
    <tag k="name" v="Bad Nauheim"/>
    <tag k="operator" v="Deutsche Bahn"/>
    <tag k="public_transport" v="stop_position"/>
    <tag k="railway" v="stop"/>
    <tag k="railway:ref" v="FBNA"/>
    <tag k="train" v="yes"/>
    <tag k="uic_ref" v="8000728"/>
    <tag k="wheelchair" v="yes"/>
  </node>
    <node id="670262736" lat="48.9937273" lon="8.4021892">
    <tag k="description" v="Karlsruhe Hauptbahnhof, Gleis 5"/>
    <tag k="local_ref" v="5"/>
    <tag k="name" v="Karlsruhe Hauptbahnhof"/>
    <tag k="public_transport" v="stop_position"/>
    <tag k="railway" v="stop"/>
    <tag k="ref" v="5"/>
    <tag k="train" v="yes"/>
    <tag k="uic_ref" v="8000191"/>
  </node>
  <node id="670262754" lat="48.9935557" lon="8.4023204">
    <tag k="description" v="Karlsruhe Hauptbahnhof, Gleis 7"/>
    <tag k="local_ref" v="7"/>
    <tag k="name" v="Karlsruhe Hauptbahnhof"/>
    <tag k="public_transport" v="stop_position"/>
    <tag k="railway" v="stop"/>
    <tag k="ref" v="7"/>
    <tag k="train" v="yes"/>
    <tag k="uic_ref" v="8000191"/>
  </node>
    <node id="687870282" lat="48.9934471" lon="8.4024045">
    <tag k="description" v="Karlsruhe Hauptbahnhof, Gleis 8"/>
    <tag k="local_ref" v="8"/>
    <tag k="name" v="Karlsruhe Hauptbahnhof"/>
    <tag k="public_transport" v="stop_position"/>
    <tag k="railway" v="stop"/>
    <tag k="ref" v="8"/>
    <tag k="train" v="yes"/>
    <tag k="uic_ref" v="8000191"/>
  </node>
  <node id="670262720" lat="48.9938978" lon="8.4020575">
    <tag k="description" v="Karlsruhe Hauptbahnhof, Gleis 3"/>
    <tag k="local_ref" v="3"/>
    <tag k="name" v="Karlsruhe Hauptbahnhof"/>
    <tag k="public_transport" v="stop_position"/>
    <tag k="railway" v="stop"/>
    <tag k="ref" v="3"/>
    <tag k="train" v="yes"/>
    <tag k="uic_ref" v="8000191"/>
  </node>
    <node id="402589272" lat="48.9939669" lon="8.4020050">
    <tag k="description" v="Karlsruhe Hauptbahnhof, Gleis 2"/>
    <tag k="local_ref" v="2"/>
    <tag k="name" v="Karlsruhe Hauptbahnhof"/>
    <tag k="public_transport" v="stop_position"/>
    <tag k="railway" v="stop"/>
    <tag k="ref" v="2"/>
    <tag k="train" v="yes"/>
    <tag k="uic_ref" v="8000191"/>
  </node>
 <way id="26659127" user="Masch" uid="55988" visible="true" version="5" changeset="4142606" timestamp="2010-03-16T11:47:08Z">
  <nd ref="292403538"/>
  <nd ref="298884289"/>
  <nd ref="261728686"/>
  <tag k="highway" v="unclassified"/>
  <tag k="name" v="Pastower Straße"/>
 </way>
 <relation id="56688" user="kmvar" uid="56190" visible="true" version="28" changeset="6947637" timestamp="2011-01-12T14:23:49Z">
  <member type="node" ref="294942404" role=""/>
  <member type="node" ref="364933006" role=""/>
  <member type="way" ref="4579143" role=""/>
  <member type="node" ref="249673494" role=""/>
  <tag k="name" v="Küstenbus Linie 123"/>
  <tag k="network" v="VVW"/>
  <tag k="operator" v="Regionalverkehr Küste"/>
  <tag k="ref" v="123"/>
  <tag k="route" v="bus"/>
  <tag k="type" v="route"/>
 </relation>
</osm>